NORAD_CAT_ID,OBJECT_NAME,OBJECT_TYPE,EPOCH,MEAN_MOTION,ECCENTRICITY,INCLINATION,RA_OF_ASC_NODE,ARG_OF_PERICENTER,MEAN_ANOMALY,BSTAR,MEAN_MOTION_DOT,MEAN_MOTION_DDOT,TLE_LINE0,TLE_LINE1,TLE_LINE2,SEMIMAJOR_AXIS,PERIOD,APOGEE,PERIGEE,DECAYED
54762.0,STARLINK-5214,PAYLOAD,2023-07-29 09:51:54,15.08835917,0.0001055,53.2171,8.1649,96.8363,263.2749,0.00020004,2.897e-05,0.0,0 STARLINK-5214,1 54762U 22175E   23210.41105257  .00002897  00000-0  20004-3 0  9999,2 54762  53.2171   8.1649 0001055  96.8363 263.2749 15.08835917 33690,6917.893,95.438,540.488,539.028,0.0
54762.0,STARLINK-5214,PAYLOAD,2023-07-29 17:48:50,15.08846507,9.96e-05,53.2169,6.6781,107.0293,253.0808,0.00025892,3.836e-05,0.0,0 STARLINK-5214,1 54762U 22175E   23210.74224749  .00003836  00000-0  25892-3 0  9997,2 54762  53.2169   6.6781 0000996 107.0293 253.0808 15.08846507 33743,6917.86,95.437,540.415,539.036,0.0
54762.0,STARLINK-5214,PAYLOAD,2023-07-30 17:39:37,15.08846749,9.06e-05,53.2177,2.2171,91.1975,268.912,0.00018028,2.583e-05,0.0,0 STARLINK-5214,1 54762U 22175E   23211.73584757  .00002583  00000-0  18028-3 0  9996,2 54762  53.2177   2.2171 0000906  91.1975 268.9120 15.08846749 33894,6917.86,95.437,540.352,539.098,0.0
54762.0,STARLINK-5214,PAYLOAD,2023-07-31 09:33:28,15.08842128,0.0001089,53.2176,359.2449,80.1326,279.9789,0.00010637,1.406e-05,0.0,0 STARLINK-5214,1 54762U 22175E   23212.39825080  .00001406  00000-0  10637-3 0  9997,2 54762  53.2176 359.2449 0001089  80.1326 279.9789 15.08842128 33998,6917.874,95.437,540.492,538.986,0.0
54762.0,STARLINK-5214,PAYLOAD,2023-08-01 15:45:48,15.08843991,0.0001118,53.2179,353.5952,76.2695,283.8421,8.3808e-05,1.046e-05,0.0,0 STARLINK-5214,1 54762U 22175E   23213.65681063  .00001046  00000-0  83808-4 0  9999,2 54762  53.2179 353.5952 0001118  76.2695 283.8421 15.08843991 34183,6917.868,95.437,540.507,538.96,0.0
54762.0,STARLINK-5214,PAYLOAD,2023-08-02 20:22:44,15.08857671,0.0001054,53.2175,348.2414,92.5228,267.5885,0.00033549,5.058e-05,0.0,0 STARLINK-5214,1 54762U 22175E   23214.84912220  .00005058  00000-0  33549-3 0  9996,2 54762  53.2175 348.2414 0001054  92.5228 267.5885 15.08857671 34368,6917.826,95.436,540.421,538.962,0.0
54762.0,STARLINK-5214,PAYLOAD,2023-08-03 09:05:50,15.08837273,0.0001142,53.2184,345.8628,88.2077,271.9046,4.5796e-05,4.41e-06,0.0,0 STARLINK-5214,1 54762U 22175E   23215.37905306  .00000441  00000-0  45796-4 0  9991,2 54762  53.2184 345.8628 0001142  88.2077 271.9046 15.08837273 34443,6917.889,95.438,540.544,538.964,0.0
54762.0,STARLINK-5214,PAYLOAD,2023-08-03 15:27:22,15.08843072,0.0001119,53.218,344.6732,92.7581,267.354,0.00012573,1.714e-05,0.0,0 STARLINK-5214,1 54762U 22175E   23215.64401002  .00001714  00000-0  12573-3 0  9995,2 54762  53.2180 344.6732 0001119  92.7581 267.3540 15.08843072 34482,6917.871,95.437,540.51,538.962,0.0
54762.0,STARLINK-5214,PAYLOAD,2023-08-04 15:18:09,15.08842489,0.0001131,53.2177,340.2129,91.9915,268.1207,9.627e-05,1.245e-05,0.0,0 STARLINK-5214,1 54762U 22175E   23216.63761164  .00001245  00000-0  96270-4 0  9999,2 54762  53.2177 340.2129 0001131  91.9915 268.1207 15.08842489 34633,6917.873,95.437,540.52,538.955,0.0
54762.0,STARLINK-5214,PAYLOAD,2023-08-05 07:12:01,15.08837033,0.000118,53.2176,337.2397,81.4724,278.6402,0.00012432,1.691e-05,0.0,0 STARLINK-5214,1 54762U 22175E   23217.30001586  .00001691  00000-0  12432-3 0  9991,2 54762  53.2176 337.2397 0001180  81.4724 278.6402 15.08837033 34734,6917.889,95.438,540.571,538.938,0.0
54762.0,STARLINK-5214,PAYLOAD,2023-08-05 13:33:33,15.08856043,0.0001267,53.2177,336.0492,109.1243,250.9887,0.00042104,6.422e-05,0.0,0 STARLINK-5214,1 54762U 22175E   23217.56496719  .00006422  00000-0  42104-3 0  9991,2 54762  53.2177 336.0492 0001267 109.1243 250.9887 15.08856043 34774,6917.831,95.437,540.573,538.82,0.0
54762.0,STARLINK-5214,PAYLOAD,2023-08-06 00:41:15,15.08838929,0.0001855,53.2176,333.9665,72.5295,287.59,1.4106e-05,-6.4e-07,0.0,0 STARLINK-5214,1 54762U 22175E   23218.02865322 -.00000064  00000-0  14106-4 0  9992,2 54762  53.2176 333.9665 0001855  72.5295 287.5900 15.08838929 34847,6917.884,95.438,541.032,538.465,0.0
54762.0,STARLINK-5214,PAYLOAD,2023-08-06 18:10:31,15.08814697,0.0001173,53.2173,330.6971,69.3582,290.7536,7.0476e-05,8.33e-06,0.0,0 STARLINK-5214,1 54762U 22175E   23218.75730732  .00000833  00000-0  70476-4 0  9993,2 54762  53.2173 330.6971 0001173  69.3582 290.7536 15.08814697 34953,6917.958,95.439,540.634,539.011,0.0
54762.0,STARLINK-5214,PAYLOAD,2023-08-07 19:36:42,15.08856612,0.0001168,53.2164,325.9397,57.6455,302.465,0.001618,0.00025568,0.0,0 STARLINK-5214,1 54762U 22175E   23219.81715513  .00025568  00000-0  16180-2 0  9993,2 54762  53.2164 325.9397 0001168  57.6455 302.4650 15.08856612 35115,6917.83,95.437,540.503,538.887,0.0
54762.0,STARLINK-5214,PAYLOAD,2023-08-08 06:44:23,15.08868636,0.0001088,53.2158,323.8587,61.2682,298.8419,0.0013526,0.00021321,0.0,0 STARLINK-5214,1 54762U 22175E   23220.28082965  .00021321  00000-0  13526-2 0  9998,2 54762  53.2158 323.8587 0001088  61.2682 298.8419 15.08868636 35187,6917.793,95.436,540.411,538.905,0.0
54762.0,STARLINK-5214,PAYLOAD,2023-08-09 16:07:28,15.08846587,9.09e-05,53.2156,317.6128,66.7095,293.3992,0.00021164,3.083e-05,0.0,0 STARLINK-5214,1 54762U 22175E   23221.67185979  .00003083  00000-0  21164-3 0  9994,2 54762  53.2156 317.6128 0000909  66.7095 293.3992 15.08846587 35396,6917.86,95.437,540.354,539.096,0.0
54762.0,STARLINK-5214,PAYLOAD,2023-08-10 09:36:43,15.0884169,0.0001068,53.2163,314.3439,68.1276,291.983,0.00029985,4.488e-05,0.0,0 STARLINK-5214,1 54762U 22175E   23222.40050233  .00004488  00000-0  29985-3 0  9999,2 54762  53.2163 314.3439 0001068  68.1276 291.9830 15.08841690 35505,6917.875,95.437,540.479,539.001,0.0
54762.0,STARLINK-5214,PAYLOAD,2023-08-10 15:58:15,15.0885383,0.0001169,53.2177,313.1546,78.8521,281.2603,0.00054585,8.413e-05,0.0,0 STARLINK-5214,1 54762U 22175E   23222.66545863  .00008413  00000-0  54585-3 0  9991,2 54762  53.2177 313.1546 0001169  78.8521 281.2603 15.08853830 35542,6917.838,95.437,540.512,538.894,0.0
54762.0,STARLINK-5214,PAYLOAD,2023-08-11 11:02:53,15.08843495,0.0001084,53.2173,309.5853,83.7806,276.331,0.00016652,2.364e-05,0.0,0 STARLINK-5214,1 54762U 22175E   23223.46034067  .00002364  00000-0  16652-3 0  9991,2 54762  53.2173 309.5853 0001084  83.7806 276.3310 15.08843495 35664,6917.87,95.437,540.485,538.985,0.0
54762.0,STARLINK-5214,PAYLOAD,2023-08-12 15:39:49,15.08850191,0.000107,53.2171,304.2333,83.685,276.4264,0.00022387,3.278e-05,0.0,0 STARLINK-5214,1 54762U 22175E   23224.65265746  .00003278  00000-0  22387-3 0  9990,2 54762  53.2171 304.2333 0001070  83.6850 276.4264 15.08850191 35840,6917.849,95.437,540.454,538.974,0.0
54762.0,STARLINK-5214,PAYLOAD,2023-08-13 05:58:18,15.08835914,0.0001114,53.2169,301.5548,85.7387,274.3732,1.9712e-06,-2.56e-06,0.0,0 STARLINK-5214,1 54762U 22175E   23225.24882415 -.00000256  00000-0  19712-5 0  9998,2 54762  53.2169 301.5548 0001114  85.7387 274.3732 15.08835914 35935,6917.893,95.438,540.529,538.987,0.0
54762.0,STARLINK-5214,PAYLOAD,2023-08-14 10:35:14,15.08843275,0.000117,53.2166,296.2025,92.1086,268.004,0.00011957,1.616e-05,0.0,0 STARLINK-5214,1 54762U 22175E   23226.44114421  .00001616  00000-0  11957-3 0  9997,2 54762  53.2166 296.2025 0001170  92.1086 268.0040 15.08843275 36114,6917.87,95.437,540.545,538.926,0.0
54762.0,STARLINK-5214,PAYLOAD,2023-08-14 16:56:46,15.08859497,0.0001528,53.2168,295.0131,100.6861,259.4303,-0.00014898,-2.66e-05,0.0,0 STARLINK-5214,1 54762U 22175E   23226.70609397 -.00002660  00000-0 -14898-3 0  9996,2 54762  53.2168 295.0131 0001528 100.6861 259.4303 15.08859497 36157,6917.821,95.436,540.743,538.629,0.0
54762.0,STARLINK-5214,PAYLOAD,2023-08-14 21:42:56,15.0884663,0.0001231,53.2162,294.1201,72.1606,287.9521,0.00013073,1.794e-05,0.0,0 STARLINK-5214,1 54762U 22175E   23226.90482292  .00001794  00000-0  13073-3 0  9990,2 54762  53.2162 294.1201 0001231  72.1606 287.9521 15.08846630 36186,6917.86,95.437,540.577,538.874,0.0
54762.0,STARLINK-5214,PAYLOAD,2023-08-15 21:33:43,15.08841436,0.0001195,53.2163,289.6583,85.7449,274.368,0.00010292,1.351e-05,0.0,0 STARLINK-5214,1 54762U 22175E   23227.89842534  .00001351  00000-0  10292-3 0  9997,2 54762  53.2163 289.6583 0001195  85.7449 274.3680 15.08841436 36335,6917.876,95.437,540.568,538.914,0.0
54762.0,STARLINK-5214,PAYLOAD,2023-08-17 10:07:35,15.08848213,0.000118,53.2147,282.823,73.3764,286.7358,0.00013503,1.862e-05,0.0,0 STARLINK-5214,1 54762U 22175E   23229.42194284  .00001862  00000-0  13503-3 0  9995,2 54762  53.2147 282.8230 0001180  73.3764 286.7358 15.08848213 36562,6917.855,95.437,540.537,538.904,0.0
54762.0,STARLINK-5214,PAYLOAD,2023-08-18 09:58:23,15.0883909,0.0001274,53.2153,278.362,86.4805,273.6333,8.3565e-05,1.042e-05,0.0,0 STARLINK-5214,1 54762U 22175E   23230.41554751  .00001042  00000-0  83565-4 0  9991,2 54762  53.2153 278.3620 0001274  86.4805 273.6333 15.08839090 36715,6917.883,95.438,540.63,538.867,0.0
54762.0,STARLINK-5214,PAYLOAD,2023-08-20 03:18:25,15.08839046,0.0001316,53.215,270.6297,95.2582,264.8561,0.00013371,1.841e-05,0.0,0 STARLINK-5214,1 54762U 22175E   23232.13778979  .00001841  00000-0  13371-3 0  9996,2 54762  53.2150 270.6297 0001316  95.2582 264.8561 15.08839046 36978,6917.883,95.438,540.659,538.838,0.0
54762.0,STARLINK-5214,PAYLOAD,2023-08-21 07:55:21,15.08839439,0.0001479,53.2164,265.2783,101.2229,258.893,7.2769e-05,8.7e-06,0.0,0 STARLINK-5214,1 54762U 22175E   23233.33011006  .00000870  00000-0  72769-4 0  9998,2 54762  53.2164 265.2783 0001479 101.2229 258.8930 15.08839439 37159,6917.882,95.438,540.77,538.724,0.0
54762.0,STARLINK-5214,PAYLOAD,2023-08-22 02:59:59,15.08829837,0.0001663,53.2168,261.7098,96.4358,263.6824,4.4173e-05,4.15e-06,0.0,0 STARLINK-5214,1 54762U 22175E   23234.12499705  .00000415  00000-0  44173-4 0  9995,2 54762  53.2168 261.7098 0001663  96.4358 263.6824 15.08829837 37276,6917.911,95.438,540.927,538.626,0.0
